ORBCOMM FM20            
1 25416U 98046D   26003.21219862  .00002158  00000+0  75735-3 0  9992
2 25416  44.9946 313.6652 0002051 291.5058  68.5571 14.37727500433042
ORBCOMM FM16            
1 25417U 98046E   26003.37652439  .00002798  00000+0  93194-3 0  9990
2 25417  44.9938 301.7034 0004539 251.3046 108.7310 14.39613686433094
ORBCOMM FM15            
1 25418U 98046F   26003.26456928  .00002597  00000+0  87484-3 0  9996
2 25418  44.9974 307.9932 0004412 252.5148 107.5218 14.39239083433062
ORBCOMM FM14            
1 25419U 98046G   26003.22846316  .00002792  00000+0  92927-3 0  9992
2 25419  44.9963 305.7860 0003081 258.2817 101.7687 14.39662815433030
ORBCOMM FM13            
1 25420U 98046H   26003.24695594  .00002333  00000+0  80636-3 0  9991
2 25420  44.9980 315.7172 0004714 226.8087 133.2368 14.38263629432036
ORBCOMM FM21            
1 25475U 98053A   26003.44266995  .00001697  00000+0  60435-3 0  9997
2 25475  45.0092  40.8191 0002265 223.1693 136.8978 14.37851986426061
ORBCOMM FM22            
1 25476U 98053B   26003.46456239  .00002582  00000+0  87373-3 0  9996
2 25476  45.0078  33.8530 0003082 197.1350 162.9395 14.39043846426112
ORBCOMM FM23            
1 25477U 98053C   26003.48364792  .00002244  00000+0  78006-3 0  9999
2 25477  45.0087  42.4248 0002583 201.3176 158.7565 14.38098676426228
